{
  "type": "FeatureCollection",
  "features": [
    {
      "type": "Feature",
      "properties": {
        "norad_id": 37532,
        "name": "COSMOS 2251 DEB",
        "group": "cosmos-2251-debris",
        "lat": -57.88350802096729,
        "lon": -176.79982086529662,
        "alt_km": 746.1281046259983,
        "timestamp": "2025-12-15T15:53:20.245782+00:00",
        "meta_object_name": "COSMOS 2251 DEB",
        "meta_object_id": "1993-036BNM",
        "meta_epoch": "2025-12-14T09:22:45.259968",
        "meta_mean_motion": 14.42410404,
        "meta_eccentricity": 0.00160101,
        "meta_inclination": 74.0496,
        "meta_ra_of_asc_node": 212.6604,
        "meta_arg_of_pericenter": 313.2255,
        "meta_mean_anomaly": 226.6563,
        "meta_ephemeris_type": 0,
        "meta_classification_type": "U",
        "meta_norad_cat_id": 37532,
        "meta_element_set_no": 999,
        "meta_rev_at_epoch": 84939,
        "meta_bstar": 0.00027461522,
        "meta_mean_motion_dot": 8.83e-06,
        "meta_mean_motion_ddot": 0,
        "tle_line1": "1 37532U 93036BNM 25348.39080162  .00000883  00000+0  27462-3 0  9994",
        "tle_line2": "2 37532  74.0496 212.6604 0016010 313.2255 226.6563 14.42410404849399"
      },
      "geometry": {
        "type": "Point",
        "coordinates": [
          -176.79982086529662,
          -57.88350802096729
        ]
      }
    },
    {
      "type": "Feature",
      "properties": {
        "norad_id": 37533,
        "name": "COSMOS 2251 DEB",
        "group": "cosmos-2251-debris",
        "lat": 66.18610909100202,
        "lon": -133.01701527295918,
        "alt_km": 957.6978999666317,
        "timestamp": "2025-12-15T15:53:20.245790+00:00",
        "meta_object_name": "COSMOS 2251 DEB",
        "meta_object_id": "1993-036BNN",
        "meta_epoch": "2025-12-10T19:55:37.417152",
        "meta_mean_motion": 14.12152288,
        "meta_eccentricity": 0.01580439,
        "meta_inclination": 74.0697,
        "meta_ra_of_asc_node": 195.1706,
        "meta_arg_of_pericenter": 252.2523,
        "meta_mean_anomaly": 106.1316,
        "meta_ephemeris_type": 0,
        "meta_classification_type": "U",
        "meta_norad_cat_id": 37533,
        "meta_element_set_no": 999,
        "meta_rev_at_epoch": 62894,
        "meta_bstar": 0.0019185157,
        "meta_mean_motion_dot": 3.939e-05,
        "meta_mean_motion_ddot": 0,
        "tle_line1": "1 37533U 93036BNN 25344.83029418  .00003939  00000+0  19185-2 0  9994",
        "tle_line2": "2 37533  74.0697 195.1706 0158043 252.2523 106.1316 14.12152288628948"
      },
      "geometry": {
        "type": "Point",
        "coordinates": [
          -133.01701527295918,
          66.18610909100202
        ]
      }
    },
    {
      "type": "Feature",
      "properties": {
        "norad_id": 37535,
        "name": "COSMOS 2251 DEB",
        "group": "cosmos-2251-debris",
        "lat": 55.8289617493293,
        "lon": -137.02677837316227,
        "alt_km": 690.9528903527125,
        "timestamp": "2025-12-15T15:53:20.245799+00:00",
        "meta_object_name": "COSMOS 2251 DEB",
        "meta_object_id": "1993-036BNQ",
        "meta_epoch": "2025-12-14T16:52:27.744960",
        "meta_mean_motion": 14.58474576,
        "meta_eccentricity": 0.00276995,
        "meta_inclination": 74.0242,
        "meta_ra_of_asc_node": 69.7599,
        "meta_arg_of_pericenter": 208.5308,
        "meta_mean_anomaly": 279.4692,
        "meta_ephemeris_type": 0,
        "meta_classification_type": "U",
        "meta_norad_cat_id": 37535,
        "meta_element_set_no": 999,
        "meta_rev_at_epoch": 85353,
        "meta_bstar": 0.00070615035,
        "meta_mean_motion_dot": 3.267e-05,
        "meta_mean_motion_ddot": 0,
        "tle_line1": "1 37535U 93036BNQ 25348.70309890  .00003267  00000+0  70615-3 0  9991",
        "tle_line2": "2 37535  74.0242  69.7599 0027699 208.5308 279.4692 14.58474576853532"
      },
      "geometry": {
        "type": "Point",
        "coordinates": [
          -137.02677837316227,
          55.8289617493293
        ]
      }
    },
    {
      "type": "Feature",
      "properties": {
        "norad_id": 37537,
        "name": "COSMOS 2251 DEB",
        "group": "cosmos-2251-debris",
        "lat": 73.90837884092281,
        "lon": -3.8953930621741697,
        "alt_km": 737.3798249193505,
        "timestamp": "2025-12-15T15:53:20.245808+00:00",
        "meta_object_name": "COSMOS 2251 DEB",
        "meta_object_id": "1993-036BNS",
        "meta_epoch": "2025-12-11T11:15:11.696832",
        "meta_mean_motion": 14.37489039,
        "meta_eccentricity": 0.00502138,
        "meta_inclination": 74.0122,
        "meta_ra_of_asc_node": 267.468,
        "meta_arg_of_pericenter": 48.0201,
        "meta_mean_anomaly": 312.5213,
        "meta_ephemeris_type": 0,
        "meta_classification_type": "U",
        "meta_norad_cat_id": 37537,
        "meta_element_set_no": 999,
        "meta_rev_at_epoch": 85015,
        "meta_bstar": 0.0003879169,
        "meta_mean_motion_dot": 1.152e-05,
        "meta_mean_motion_ddot": 0,
        "tle_line1": "1 37537U 93036BNS 25345.46888538  .00001152  00000+0  38792-3 0  9995",
        "tle_line2": "2 37537  74.0122 267.4680 0050213  48.0201 312.5213 14.37489039850156"
      },
      "geometry": {
        "type": "Point",
        "coordinates": [
          -3.8953930621741697,
          73.90837884092281
        ]
      }
    },
    {
      "type": "Feature",
      "properties": {
        "norad_id": 37546,
        "name": "COSMOS 2251 DEB",
        "group": "cosmos-2251-debris",
        "lat": -72.52915084186616,
        "lon": -22.207457196821927,
        "alt_km": 637.9207393065781,
        "timestamp": "2025-12-15T15:53:20.245817+00:00",
        "meta_object_name": "COSMOS 2251 DEB",
        "meta_object_id": "1993-036BPB",
        "meta_epoch": "2025-12-13T15:40:44.550624",
        "meta_mean_motion": 14.80580134,
        "meta_eccentricity": 0.00056627,
        "meta_inclination": 74.0221,
        "meta_ra_of_asc_node": 96.2019,
        "meta_arg_of_pericenter": 105.6347,
        "meta_mean_anomaly": 254.5455,
        "meta_ephemeris_type": 0,
        "meta_classification_type": "U",
        "meta_norad_cat_id": 37546,
        "meta_element_set_no": 999,
        "meta_rev_at_epoch": 65901,
        "meta_bstar": 0.0029558541,
        "meta_mean_motion_dot": 0.00022724,
        "meta_mean_motion_ddot": 0,
        "tle_line1": "1 37546U 93036BPB 25347.65329341  .00022724  00000+0  29559-2 0  9998",
        "tle_line2": "2 37546  74.0221  96.2019 0005662 105.6347 254.5455 14.80580134659010"
      },
      "geometry": {
        "type": "Point",
        "coordinates": [
          -22.207457196821927,
          -72.52915084186616
        ]
      }
    },
    {
      "type": "Feature",
      "properties": {
        "norad_id": 37959,
        "name": "COSMOS 2251 DEB",
        "group": "cosmos-2251-debris",
        "lat": -39.45928201063253,
        "lon": -114.9728572607074,
        "alt_km": 669.0331540268699,
        "timestamp": "2025-12-15T15:53:20.245826+00:00",
        "meta_object_name": "COSMOS 2251 DEB",
        "meta_object_id": "1993-036BPJ",
        "meta_epoch": "2025-12-14T10:58:10.890336",
        "meta_mean_motion": 14.58161119,
        "meta_eccentricity": 0.00577285,
        "meta_inclination": 74.0113,
        "meta_ra_of_asc_node": 53.671,
        "meta_arg_of_pericenter": 196.0829,
        "meta_mean_anomaly": 182.1338,
        "meta_ephemeris_type": 0,
        "meta_classification_type": "U",
        "meta_norad_cat_id": 37959,
        "meta_element_set_no": 999,
        "meta_rev_at_epoch": 80152,
        "meta_bstar": 0.00075884063,
        "meta_mean_motion_dot": 3.551e-05,
        "meta_mean_motion_ddot": 0,
        "tle_line1": "1 37959U 93036BPJ 25348.45707049  .00003551  00000+0  75884-3 0  9990",
        "tle_line2": "2 37959  74.0113  53.6710 0057728 196.0829 182.1338 14.58161119801526"
      },
      "geometry": {
        "type": "Point",
        "coordinates": [
          -114.9728572607074,
          -39.45928201063253
        ]
      }
    },
    {
      "type": "Feature",
      "properties": {
        "norad_id": 37960,
        "name": "COSMOS 2251 DEB",
        "group": "cosmos-2251-debris",
        "lat": -73.52995682210869,
        "lon": 106.57589388713463,
        "alt_km": 821.2244822493403,
        "timestamp": "2025-12-15T15:53:20.245835+00:00",
        "meta_object_name": "COSMOS 2251 DEB",
        "meta_object_id": "1993-036BPK",
        "meta_epoch": "2025-12-14T06:11:46.389120",
        "meta_mean_motion": 14.07861121,
        "meta_eccentricity": 0.02486852,
        "meta_inclination": 74.058,
        "meta_ra_of_asc_node": 184.231,
        "meta_arg_of_pericenter": 202.5017,
        "meta_mean_anomaly": 156.5067,
        "meta_ephemeris_type": 0,
        "meta_classification_type": "U",
        "meta_norad_cat_id": 37960,
        "meta_element_set_no": 999,
        "meta_rev_at_epoch": 77427,
        "meta_bstar": 0.00090092119,
        "meta_mean_motion_dot": 2.003e-05,
        "meta_mean_motion_ddot": 0,
        "tle_line1": "1 37960U 93036BPK 25348.25817580  .00002003  00000+0  90092-3 0  9991",
        "tle_line2": "2 37960  74.0580 184.2310 0248685 202.5017 156.5067 14.07861121774278"
      },
      "geometry": {
        "type": "Point",
        "coordinates": [
          106.57589388713463,
          -73.52995682210869
        ]
      }
    }
  ]
}